BRO-15                  
1 60553U 24149CP  26196.13264376  .00000245  00000+0  26747-4 0  9995
2 60553  97.6792 270.9837 0007792   4.6260 355.5032 14.96221586104181
UM5-RIBAT               
1 60554U 24149CQ  26196.13483993  .00001198  00000+0  97941-4 0  9996
2 60554  97.6606 273.5562 0000722 351.8805   8.2407 15.01217968104384
UM5-EOSAT               
1 60555U 24149CR  26196.15882253  .00001915  00000+0  15172-3 0  9993
2 60555  97.6776 274.5816 0009117  35.6763 324.5069 15.01728593104416
LASARSAT                
1 62391U 24247Q   26195.93235013  .00021592  00000+0  40881-3 0  9991
2 62391  44.9739 106.1046 0007354 164.5391 195.5725 15.48033197 87612
CROCUBE                 
1 62394U 24247T   26196.08738531  .00025934  00000+0  45370-3 0  9996
2 62394  44.9722 102.0802 0007544 171.5148 188.5872 15.50189566 87677
TEVEL2-4                
1 63213U 25052D   26196.14627863  .00010715  00000+0  31215-3 0  9998
2 63213  97.3870  92.5984 0003540  51.9364 308.2199 15.35565165 74407
TEVEL2-5                
1 63214U 25052E   26196.17004560  .00010329  00000+0  30278-3 0  9994
2 63214  97.3866  92.5619 0003594  53.2255 306.9318 15.35379345 74402
TEVEL2-6                
1 63215U 25052F   26195.66162234  .00010923  00000+0  32054-3 0  9995
2 63215  97.3876  92.0373 0003680  56.3552 303.8042 15.35331616 74326
TEVEL2-1                
1 63217U 25052H   26195.63531658  .00009885  00000+0  29557-3 0  9993
2 63217  97.3847  91.6018 0004319  61.6960 298.4718 15.34761887 74302
TEVEL2-3                
1 63218U 25052J   26196.15046691  .00010185  00000+0  30378-3 0  9998
2 63218  97.3848  92.1430 0004010  61.9353 298.2295 15.34835081 74389
TEVEL2-2                
1 63219U 25052K   26196.15703338  .00010122  00000+0  30238-3 0  9993
2 63219  97.3840  92.1268 0004324  60.5637 299.6037 15.34784029 74383
TEVEL2-9                
1 63237U 25052AD  26196.17125272  .00009336  00000+0  29751-3 0  9993
2 63237  97.3907  91.4540 0007676  57.3329 302.8652 15.32732268 74316
TEVEL2-7                
1 63238U 25052AE  26196.15243169  .00009043  00000+0  29113-3 0  9995
2 63238  97.3906  91.3390 0007756  56.8395 303.3590 15.32415280 74302
TEVEL2-8                
1 63239U 25052AF  26196.16095352  .00008758  00000+0  28216-3 0  9991
2 63239  97.3906  91.3237 0007797  57.8563 302.3435 15.32400496 74306
FORESAIL-1 PRIME        
1 66778U 25276DS  26196.12835204  .00002490  00000+0  12246-3 0  9997
2 66778  97.4194 268.8900 0002884  44.4215 315.7250 15.18938050 34645
